CTC1_L_00246016-03
1 10062U 24051WX  26075.70032407  .00000000  00000+0  00000-0 0  9993
2 10062  50.0000 180.0000 0000000   0.0000   0.0000 15.48880433    10
CTC1_L_00246016-04
1 10063U 25114IM  26075.70032407  .00000000  00000+0  00000-0 0  9995
2 10063  50.0000 180.0000 0000000   0.0000  90.0000 15.48880433    10
CTC1_L_00246017-01
1 10064U 22706AB  26075.70032407  .00000000  00000+0  00000-0 0  9990
2 10064  50.0000 192.0000 0000000   0.0000 192.0000 15.48880433    17
CTC1_L_00246017-02
1 10065U 22158AV  26075.70032407  .00000000  00000+0  00000-0 0  9992
2 10065  50.0000 192.0000 0000000   0.0000 282.0000 15.48880433    18
CTC1_L_00246017-03
1 10066U 22153YY  26075.70032407  .00000000  00000+0  00000-0 0  9998
2 10066  50.0000 192.0000 0000000   0.0000  12.0000 15.48880433    10
CTC1_L_00246017-04
1 10067U 26239LA  26075.70032407  .00000000  00000+0  00000-0 0  9998
2 10067  50.0000 192.0000 0000000   0.0000 102.0000 15.48880433    11
CTC1_L_00246018-01
1 10068U 26057D   26075.70032407  .00000000  00000+0  00000-0 0  9997
2 10068  50.0000 204.0000 0000000   0.0000 204.0000 15.48880433    19
CTC1_L_00246018-02
1 10069U 26717M   26075.70032407  .00000000  00000+0  00000-0 0  9991
2 10069  50.0000 204.0000 0000000   0.0000 294.0000 15.48880433    19
CTC1_L_00246018-03
1 10070U 26263IX  26075.70032407  .00000000  00000+0  00000-0 0  9999
2 10070  50.0000 204.0000 0000000   0.0000  24.0000 15.48880433    12
CTC1_L_00246018-04
1 10071U 22686KW  26075.70032407  .00000000  00000+0  00000-0 0  9995
2 10071  50.0000 204.0000 0000000   0.0000 114.0000 15.48880433    13
CTC1_L_00246019-01
1 10072U 25034NU  26075.70032407  .00000000  00000+0  00000-0 0  9996
2 10072  50.0000 216.0000 0000000   0.0000 216.0000 15.48880433    10
CTC1_L_00246019-02
1 10073U 25494HO  26075.70032407  .00000000  00000+0  00000-0 0  9997
2 10073  50.0000 216.0000 0000000   0.0000 306.0000 15.48880433    11
CTC1_L_00246019-03
1 10074U 23608OF  26075.70032407  .00000000  00000+0  00000-0 0  9993
2 10074  50.0000 216.0000 0000000   0.0000  36.0000 15.48880433    12
CTC1_L_00246019-04
1 10075U 22338GJ  26075.70032407  .00000000  00000+0  00000-0 0  9993
2 10075  50.0000 216.0000 0000000   0.0000 126.0000 15.48880433    13
CTC1_L_00246020-01
1 10076U 23893CN  26075.70032407  .00000000  00000+0  00000-0 0  9991
2 10076  50.0000 228.0000 0000000   0.0000 228.0000 15.48880433    10
CTC1_L_00246020-02
1 10077U 25062HA  26075.70032407  .00000000  00000+0  00000-0 0  9992
2 10077  50.0000 228.0000 0000000   0.0000 318.0000 15.48880433    11
CTC1_L_00246020-03
1 10078U 26723UQ  26075.70032407  .00000000  00000+0  00000-0 0  9998
2 10078  50.0000 228.0000 0000000   0.0000  48.0000 15.48880433    12
CTC1_L_00246020-04
1 10079U 24428AQ  26075.70032407  .00000000  00000+0  00000-0 0  9999
2 10079  50.0000 228.0000 0000000   0.0000 138.0000 15.48880433    13
CTC1_L_00246021-01
1 10080U 25843CR  26075.70032407  .00000000  00000+0  00000-0 0  9993
2 10080  50.0000 240.0000 0000000   0.0000 240.0000 15.48880433    13
CTC1_L_00246021-02
1 10081U 22262VY  26075.70032407  .00000000  00000+0  00000-0 0  9996
2 10081  50.0000 240.0000 0000000   0.0000 330.0000 15.48880433    14
CTC1_L_00246021-03
1 10082U 25292CB  26075.70032407  .00000000  00000+0  00000-0 0  9993
2 10082  50.0000 240.0000 0000000   0.0000  60.0000 15.48880433    15
CTC1_L_00246021-04
1 10083U 22761J   26075.70032407  .00000000  00000+0  00000-0 0  9992
2 10083  50.0000 240.0000 0000000   0.0000 150.0000 15.48880433    16
CTC1_L_00246022-01
1 10084U 23356DL  26075.70032407  .00000000  00000+0  00000-0 0  9994
2 10084  50.0000 252.0000 0000000   0.0000 252.0000 15.48880433    13
CTC1_L_00246022-02
1 10085U 26694MI  26075.70032407  .00000000  00000+0  00000-0 0  9993
2 10085  50.0000 252.0000 0000000   0.0000 342.0000 15.48880433    14
CTC1_L_00246022-03
1 10086U 23129VD  26075.70032407  .00000000  00000+0  00000-0 0  9994
2 10086  50.0000 252.0000 0000000   0.0000  72.0000 15.48880433    15
CTC1_L_00246022-04
1 10087U 26031NM  26075.70032407  .00000000  00000+0  00000-0 0  9990
2 10087  50.0000 252.0000 0000000   0.0000 162.0000 15.48880433    16
CTC1_L_00246023-01
1 10088U 24404MN  26075.70032407  .00000000  00000+0  00000-0 0  9993
2 10088  50.0000 264.0000 0000000   0.0000 264.0000 15.48880433    13
CTC1_L_00246023-02
1 10089U 23698SB  26075.70032407  .00000000  00000+0  00000-0 0  9998
2 10089  50.0000 264.0000 0000000   0.0000 354.0000 15.48880433    14
CTC1_L_00246023-03
1 10090U 23210EJ  26075.70032407  .00000000  00000+0  00000-0 0  9990
2 10090  50.0000 264.0000 0000000   0.0000  84.0000 15.48880433    16
CTC1_L_00246023-04
1 10091U 26888OE  26075.70032407  .00000000  00000+0  00000-0 0  9995
2 10091  50.0000 264.0000 0000000   0.0000 174.0000 15.48880433    17
CTC1_L_00246024-01
1 10092U 25136FS  26075.70032407  .00000000  00000+0  00000-0 0  9991
2 10092  50.0000 276.0000 0000000   0.0000 276.0000 15.48880433    14
CTC1_L_00246024-02
1 10093U 25120EU  26075.70032407  .00000000  00000+0  00000-0 0  9995
2 10093  50.0000 276.0000 0000000   0.0000   6.0000 15.48880433    16
CTC1_L_00246024-03
1 10094U 24501OM  26075.70032407  .00000000  00000+0  00000-0 0  9998
2 10094  50.0000 276.0000 0000000   0.0000  96.0000 15.48880433    16
CTC1_L_00246024-04
1 10095U 23213JV  26075.70032407  .00000000  00000+0  00000-0 0  9998
2 10095  50.0000 276.0000 0000000   0.0000 186.0000 15.48880433    17
CTC1_L_00246025-01
1 10096U 26214YP  26075.70032407  .00000000  00000+0  00000-0 0  9993
2 10096  50.0000 288.0000 0000000   0.0000 288.0000 15.48880433    14
CTC1_L_00246025-02
1 10097U 22713ED  26075.70032407  .00000000  00000+0  00000-0 0  9994
2 10097  50.0000 288.0000 0000000   0.0000  18.0000 15.48880433    16
CTC1_L_00246025-03
1 10098U 24547BJ  26075.70032407  .00000000  00000+0  00000-0 0  9992
2 10098  50.0000 288.0000 0000000   0.0000 108.0000 15.48880433    17
CTC1_L_00246025-04
1 10099U 26913LT  26075.70032407  .00000000  00000+0  00000-0 0  9992
2 10099  50.0000 288.0000 0000000   0.0000 198.0000 15.48880433    17
CTC1_L_00246026-01
1 10100U 22168QB  26075.70032407  .00000000  00000+0  00000-0 0  9993
2 10100  50.0000 300.0000 0000000   0.0000 300.0000 15.48880433    10
CTC1_L_00246026-02
1 10101U 25938IZ  26075.70032407  .00000000  00000+0  00000-0 0  9992
2 10101  50.0000 300.0000 0000000   0.0000  30.0000 15.48880433    11
CTC1_L_00246026-03
1 10102U 23717GF  26075.70032407  .00000000  00000+0  00000-0 0  9996
2 10102  50.0000 300.0000 0000000   0.0000 120.0000 15.48880433    12
CTC1_L_00246026-04
1 10103U 26830G   26075.70032407  .00000000  00000+0  00000-0 0  9996
2 10103  50.0000 300.0000 0000000   0.0000 210.0000 15.48880433    13
CTC1_L_00246027-01
1 10104U 23210KI  26075.70032407  .00000000  00000+0  00000-0 0  9996
2 10104  50.0000 312.0000 0000000   0.0000 312.0000 15.48880433    10
CTC1_L_00246027-02
1 10105U 22276LI  26075.70032407  .00000000  00000+0  00000-0 0  9998
2 10105  50.0000 312.0000 0000000   0.0000  42.0000 15.48880433    11
CTC1_L_00246027-03
1 10106U 25500UQ  26075.70032407  .00000000  00000+0  00000-0 0  9992
2 10106  50.0000 312.0000 0000000   0.0000 132.0000 15.48880433    12
CTC1_L_00246027-04
1 10107U 24117XK  26075.70032407  .00000000  00000+0  00000-0 0  9996
2 10107  50.0000 312.0000 0000000   0.0000 222.0000 15.48880433    13
CTC1_L_00246028-01
1 10108U 26537CB  26075.70032407  .00000000  00000+0  00000-0 0  9995
2 10108  50.0000 324.0000 0000000   0.0000 324.0000 15.48880433    10
CTC1_L_00246028-02
1 10109U 26624OW  26075.70032407  .00000000  00000+0  00000-0 0  9993
2 10109  50.0000 324.0000 0000000   0.0000  54.0000 15.48880433    11
CTC1_L_00246028-03
1 10110U 26821VS  26075.70032407  .00000000  00000+0  00000-0 0  9994
2 10110  50.0000 324.0000 0000000   0.0000 144.0000 15.48880433    13
CTC1_L_00246028-04
1 10111U 25108HG  26075.70032407  .00000000  00000+0  00000-0 0  9992
2 10111  50.0000 324.0000 0000000   0.0000 234.0000 15.48880433    14
CTC1_L_00246029-01
1 10112U 22775PO  26075.70032407  .00000000  00000+0  00000-0 0  9990
2 10112  50.0000 336.0000 0000000   0.0000 336.0000 15.48880433    11
CTC1_L_00246029-02
1 10113U 26262JP  26075.70032407  .00000000  00000+0  00000-0 0  9996
2 10113  50.0000 336.0000 0000000   0.0000  66.0000 15.48880433    12
CTC1_L_00246029-03
1 10114U 26603AT  26075.70032407  .00000000  00000+0  00000-0 0  9996
2 10114  50.0000 336.0000 0000000   0.0000 156.0000 15.48880433    13
CTC1_L_00246029-04
1 10115U 23825A   26075.70032407  .00000000  00000+0  00000-0 0  9990
2 10115  50.0000 336.0000 0000000   0.0000 246.0000 15.48880433    14
CTC1_L_00246030-01
1 10116U 25711LX  26075.70032407  .00000000  00000+0  00000-0 0  9997
2 10116  50.0000 348.0000 0000000   0.0000 348.0000 15.48880433    11
CTC1_L_00246030-02
1 10117U 26681MK  26075.70032407  .00000000  00000+0  00000-0 0  9995
2 10117  50.0000 348.0000 0000000   0.0000  78.0000 15.48880433    12
CTC1_L_00246030-03
1 10118U 23587NM  26075.70032407  .00000000  00000+0  00000-0 0  9998
2 10118  50.0000 348.0000 0000000   0.0000 168.0000 15.48880433    13
CTC1_L_00246030-04
1 10119U 22521EQ  26075.70032407  .00000000  00000+0  00000-0 0  9996
2 10119  50.0000 348.0000 0000000   0.0000 258.0000 15.48880433    14
